[{"OBJECT_NAME":"STARLINK-2566","OBJECT_ID":"2021-036M","EPOCH":"2026-03-09T23:46:14.442816","MEAN_MOTION":15.30187249,"ECCENTRICITY":0.00017424,"INCLINATION":53.1607,"RA_OF_ASC_NODE":76.432,"ARG_OF_PERICENTER":102.9945,"MEAN_ANOMALY":257.125,"EPHEMERIS_TYPE":0,"CLASSIFICATION_TYPE":"U","NORAD_CAT_ID":48287,"ELEMENT_SET_NO":999,"REV_AT_EPOCH":26841,"BSTAR":-2.49611e-7,"MEAN_MOTION_DOT":-3.67e-6,"MEAN_MOTION_DDOT":0},{"OBJECT_NAME":"NUSAT-49 (KLARA DAN VON NEUMANN)","OBJECT_ID":"2024-149AJ","EPOCH":"2026-03-09T19:09:16.004160","MEAN_MOTION":15.30828857,"ECCENTRICITY":0.00011321,"INCLINATION":97.3807,"RA_OF_ASC_NODE":150.738,"ARG_OF_PERICENTER":286.7761,"MEAN_ANOMALY":73.3356,"EPHEMERIS_TYPE":0,"CLASSIFICATION_TYPE":"U","NORAD_CAT_ID":60500,"ELEMENT_SET_NO":999,"REV_AT_EPOCH":8693,"BSTAR":0.00043568345,"MEAN_MOTION_DOT":0.00012912,"MEAN_MOTION_DDOT":0}]
